ONEWEB-0350             
1 49214U 21083AE  25057.92402400 -.00000101  00000+0 -31276-3 0  9999
2 49214  87.8894  54.6919 0001720  77.5151 282.6171 13.13470110168548
ONEWEB-0351             
1 49215U 21083AF  25057.80956784  .00000121  00000+0  26651-3 0  9997
2 49215  87.9311   9.0284 0002727  76.7865 283.3572 13.20769546174029
ONEWEB-0352             
1 49216U 21083AG  25057.67643602  .00000295  00000+0  77291-3 0  9993
2 49216  87.8895  54.7794 0002267  82.6992 277.4395 13.13472110168609
ONEWEB-0354             
1 49217U 21083AH  25057.60769915  .00000057  00000+0  10726-3 0  9999
2 49217  87.9312   9.0626 0001710  70.4093 289.7225 13.20770611174038
ONEWEB-0355             
1 49218U 21083AJ  25057.70659930 -.00000062  00000+0 -20374-3 0  9994
2 49218  87.8893  54.7723 0001940  81.7218 278.4131 13.13471397168480
ONEWEB-0357             
1 49219U 21083AK  25057.60454581  .00000050  00000+0  90453-4 0  9990
2 49219  87.9310   9.0732 0002008  77.0993 283.0364 13.20770901174032
ONEWEB-0332             
1 49279U 21090A   25057.63472335 -.00000080  00000+0 -24953-3 0  9990
2 49279  87.9040  24.2718 0002123  88.8267 271.3106 13.14502252165100
ONEWEB-0347             
1 49280U 21090B   25057.59507335 -.00000001  00000+0 -34403-4 0  9991
2 49280  87.9311   9.0803 0002040  91.8328 268.3039 13.20770032168260
